GLOBALSTAR M067         
1 32263U 07048A   25003.59035500 -.00000068  00000+0  21628-3 0  9998
2 32263  51.9704 157.5529 0001147  56.6955  45.6693 12.40664024789058
GLOBALSTAR M070         
1 32264U 07048B   25003.46305752 -.00000026  00000+0  43349-3 0  9992
2 32264  51.9750 270.3189 0000959  69.0141 102.4968 12.62309550792865
GLOBALSTAR M066         
1 32265U 07048C   25003.56167253 -.00000084  00000+0  10074-3 0  9999
2 32265  51.9653 144.1155 0001543 107.0246 348.5887 12.42169165794924
GLOBALSTAR M068         
1 32266U 07048D   25003.62300275 -.00000088  00000+0  90805-4 0  9995
2 32266  51.9891  83.8988 0001639 131.3820  37.1062 12.62812703796761
GLOBALSTAR M079         
1 37188U 10054A   25003.49848806 -.00000059  00000+0  24930-3 0  9999
2 37188  52.0045 281.1281 0000611  40.2618 130.4780 12.62269340655652
GLOBALSTAR M074         
1 37189U 10054B   25003.52494244 -.00000059  00000+0  24948-3 0  9996
2 37189  52.0022 280.3944 0000944  57.7387 113.7869 12.62261115656262
GLOBALSTAR M076         
1 37190U 10054C   25003.47215962 -.00000063  00000+0  22733-3 0  9995
2 37190  52.0034 280.7117 0000926  39.1461 132.1959 12.62275678655971
GLOBALSTAR M077         
1 37191U 10054D   25003.58213743 -.00000076  00000+0  15338-3 0  9990
2 37191  52.0053 237.1872 0001026  72.4376 298.0380 12.62269497656360
